ONEWEB-0033             
1 45142U 20008M   24208.85739907 -.00000579  00000+0 -16956-2 0  9991
2 45142  87.8956 173.6067 0001791  84.9244 275.2088 13.10373232217805
ONEWEB-0035             
1 45143U 20008N   24208.65987920  .00000680  00000+0  19119-2 0  9995
2 45143  87.8964 173.6287 0001959  81.3434 278.7915 13.10374877217507
ONEWEB-0036             
1 45144U 20008P   24208.64991812 -.00000133  00000+0 -41733-3 0  9993
2 45144  87.8954 173.5863 0002248  83.8975 276.2408 13.10381532217938
ONEWEB-0038             
1 45145U 20008Q   24208.59479265 -.00000274  00000+0 -80783-3 0  9995
2 45145  87.8989 158.5230 0002432  62.1156 298.0218 13.11419468219815
ONEWEB-0039             
1 45146U 20008R   24208.63164380 -.00000530  00000+0 -15551-2 0  9995
2 45146  87.8961 173.6078 0002511  82.0584 278.0828 13.10373969217725
ONEWEB-0040             
1 45147U 20008S   24208.85407507 -.00000578  00000+0 -16915-2 0  9998
2 45147  87.8968 173.5678 0002107  80.6160 279.5206 13.10371727217459
ONEWEB-0043             
1 45149U 20008U   24208.85573642 -.00000636  00000+0 -18573-2 0  9991
2 45149  87.8960 173.5725 0002574  82.2198 277.9222 13.10372033217779
ONEWEB-0044             
1 45150U 20008V   24208.19679047 -.00004074  00000+0 -11718-1 0  9999
2 45150  87.8960 173.6973 0002340  85.7881 274.3514 13.10340106217989
